{"type":"FeatureCollection","provenance":{"source":"src/data/Jabar_By_Kab.geojson","authority":"BPS / Badan Informasi Geospasial (BIG)","method":"Ramer-Douglas-Peucker deterministic simplification","tolerance_degrees":0.005,"coordinate_precision_decimals":4,"feature_count":27,"purpose":"Lightweight regional boundary overlay for Command Center V2 mini-map","generated_at":"2026-09-11T00:00:00.000Z"},"features":[{"type":"Feature","properties":{"OBJECTID":1,"KABKOT":"BOGOR","ID_KAB":3201,"PROVINSI":"JAWA BARAT"},"geometry":{"type":"MultiPolygon","coordinates":[[[[106.9708,-6.3027],[106.9809,-6.3151],[106.9757,-6.3409],[106.9662,-6.3424],[106.9819,-6.3579],[106.9797,-6.3643],[106.9932,-6.3658],[106.9957,-6.3786],[107.0056,-6.3778],[107.0103,-6.4026],[107.0199,-6.4004],[107.0307,-6.4115],[107.0515,-6.3943],[107.0605,-6.3984],[107.0576,-6.4156],[107.0512,-6.4174],[107.0584,-6.4231],[107.0554,-6.4357],[107.0667,-6.4357],[107.1075,-6.4623],[107.126,-6.4592],[107.1227,-6.4674],[107.1733,-6.4831],[107.1647,-6.5109],[107.1787,-6.552],[107.1931,-6.5783],[107.2205,-6.5907],[107.2271,-6.6021],[107.2146,-6.6201],[107.2151,-6.6373],[107.1797,-6.6465],[107.1697,-6.6389],[107.1525,-6.6498],[107.1504,-6.663],[107.1346,-6.6705],[107.1211,-6.6633],[107.0685,-6.6652],[107.0513,-6.6566],[106.991,-6.6685],[107.0066,-6.6921],[106.994,-6.7062],[106.9965,-6.7378],[106.9879,-6.7306],[106.9715,-6.7675],[106.947,-6.7608],[106.918,-6.7875],[106.8144,-6.7687],[106.7926,-6.7525],[106.7776,-6.7548],[106.7406,-6.7153],[106.7252,-6.7184],[106.6938,-6.7448],[106.6829,-6.7459],[106.6732,-6.7316],[106.6591,-6.7318],[106.6561,-6.7477],[106.6326,-6.755],[106.589,-6.7437],[106.5765,-6.7174],[106.5479,-6.7508],[106.5333,-6.7515],[106.5248,-6.7623],[106.4664,-6.7507],[106.4506,-6.7269],[106.4491,-6.7071],[106.4294,-6.6821],[106.4304,-6.5899],[106.4163,-6.5598],[106.4233,-6.5505],[106.4033,-6.5153],[106.4126,-6.4831],[106.4011,-6.4528],[106.4399,-6.4501],[106.4547,-6.4269],[106.4446,-6.4223],[106.4539,-6.4138],[106.4393,-6.4044],[106.442,-6.3963],[106.4342,-6.3942],[106.438,-6.3879],[106.4273,-6.3761],[106.432,-6.3668],[106.4254,-6.3498],[106.4427,-6.3252],[106.4693,-6.3035],[106.4841,-6.325],[106.4762,-6.3509],[106.4901,-6.3549],[106.5,-6.3556],[106.5024,-6.3462],[106.5191,-6.3552],[106.5297,-6.3468],[106.5319,-6.3395],[106.5151,-6.3323],[106.5156,-6.3243],[106.5579,-6.3406],[106.5773,-6.3386],[106.5939,-6.3627],[106.7205,-6.3605],[106.7169,-6.37],[106.7219,-6.386],[106.728,-6.386],[106.7384,-6.4389],[106.7882,-6.4382],[106.7932,-6.4518],[106.8016,-6.452],[106.805,-6.4428],[106.8231,-6.4443],[106.8254,-6.4613],[106.8502,-6.436],[106.8557,-6.4563],[106.8821,-6.4565],[106.8919,-6.4273],[106.9053,-6.4127],[106.9147,-6.415],[106.9218,-6.3889],[106.9455,-6.3685],[106.9439,-6.358],[106.9646,-6.3253],[106.9612,-6.3086],[106.9708,-6.3027]],[[107.1302,-6.4692],[107.1301,-6.4693],[107.1302,-6.4693],[107.1302,-6.4692]],[[106.7789,-6.5117],[106.7649,-6.521],[106.7646,-6.5459],[106.7564,-6.5518],[106.7408,-6.5428],[106.7354,-6.5653],[106.7411,-6.5754],[106.7498,-6.5723],[106.7631,-6.5831],[106.7903,-6.6278],[106.7716,-6.6537],[106.787,-6.6592],[106.7994,-6.6457],[106.8061,-6.6519],[106.8097,-6.6462],[106.8191,-6.6719],[106.8434,-6.6788],[106.8486,-6.6467],[106.8314,-6.6027],[106.8396,-6.5748],[106.8184,-6.5381],[106.7932,-6.546],[106.7888,-6.5182],[106.7789,-6.5117]]]]}},{"type":"Feature","properties":{"OBJECTID":2,"KABKOT":"SUKABUMI","ID_KAB":3202,"PROVINSI":"JAWA BARAT"},"geometry":{"type":"MultiPolygon","coordinates":[[[[106.7415,-6.7156],[106.7776,-6.7548],[106.793,-6.7526],[106.8139,-6.7685],[106.8313,-6.767],[106.8998,-6.7881],[106.921,-6.7866],[106.9356,-6.7675],[106.959,-6.7618],[106.987,-6.7945],[107.0005,-6.8405],[107.0329,-6.8737],[107.0352,-6.8867],[107.0287,-6.8916],[107.0477,-6.9109],[107.0487,-6.9424],[107.065,-6.965],[107.0468,-6.9608],[107.0334,-6.9764],[107.033,-6.9872],[107.0497,-7.0048],[107.0429,-7.0232],[107.0473,-7.0319],[107.0282,-7.0445],[106.9756,-7.0136],[106.9592,-7.0335],[106.9366,-7.1091],[106.9424,-7.1329],[106.9659,-7.1449],[106.9674,-7.156],[106.9578,-7.1645],[106.9747,-7.1856],[106.9679,-7.1962],[106.9826,-7.2222],[106.98,-7.2412],[106.967,-7.2455],[106.9603,-7.2603],[106.976,-7.2844],[106.9672,-7.3122],[106.9537,-7.3211],[106.9406,-7.3178],[106.9341,-7.3341],[106.9151,-7.323],[106.9094,-7.3493],[106.8953,-7.3414],[106.8768,-7.3535],[106.8754,-7.364],[106.8686,-7.3556],[106.8557,-7.362],[106.8586,-7.3542],[106.8231,-7.3625],[106.7951,-7.3968],[106.7771,-7.402],[106.7803,-7.4151],[106.7892,-7.4088],[106.7934,-7.4173],[106.7921,-7.4321],[106.7776,-7.4408],[106.6338,-7.4186],[106.6294,-7.4099],[106.5755,-7.4182],[106.5469,-7.414],[106.5237,-7.4079],[106.4854,-7.3729],[106.4437,-7.3607],[106.4076,-7.3676],[106.406,-7.3828],[106.3995,-7.37],[106.3994,-7.3234],[106.3935,-7.3162],[106.394,-7.3278],[106.3819,-7.328],[106.3727,-7.3079],[106.3783,-7.2962],[106.3705,-7.2794],[106.3848,-7.2635],[106.3732,-7.2369],[106.381,-7.2391],[106.3905,-7.2291],[106.3867,-7.2162],[106.398,-7.2084],[106.4006,-7.1868],[106.4249,-7.1904],[106.4367,-7.1845],[106.4431,-7.1909],[106.4637,-7.1803],[106.4658,-7.171],[106.4491,-7.1531],[106.457,-7.1292],[106.4843,-7.1039],[106.518,-7.0925],[106.5455,-7.0551],[106.5436,-6.9882],[106.5162,-6.9673],[106.4404,-6.9526],[106.4159,-6.963],[106.415,-6.9743],[106.396,-6.9777],[106.3896,-6.942],[106.4003,-6.9239],[106.3929,-6.9006],[106.431,-6.8622],[106.436,-6.8198],[106.45,-6.8163],[106.4572,-6.8036],[106.4977,-6.791],[106.5255,-6.7687],[106.5333,-6.7515],[106.5479,-6.7508],[106.5755,-6.7175],[106.589,-6.7437],[106.6317,-6.755],[106.6561,-6.7477],[106.6591,-6.7318],[106.6732,-6.7316],[106.6829,-6.7459],[106.6938,-6.7448],[106.7252,-6.7184],[106.7415,-6.7156]],[[106.9148,-6.8924],[106.9009,-6.914],[106.9006,-6.9335],[106.9116,-6.9521],[106.8738,-6.963],[106.8752,-6.9762],[106.8888,-6.9694],[106.8972,-6.9782],[106.9117,-6.9784],[106.9314,-6.9654],[106.9466,-6.9691],[106.9557,-6.9585],[106.9598,-6.9187],[106.9499,-6.9207],[106.9542,-6.9052],[106.9181,-6.9028],[106.9148,-6.8924]]]]}},{"type":"Feature","properties":{"OBJECTID":3,"KABKOT":"CIANJUR","ID_KAB":3203,"PROVINSI":"JAWA BARAT"},"geometry":{"type":"MultiPolygon","coordinates":[[[[107.2302,-6.6049],[107.2646,-6.6395],[107.2594,-6.68],[107.2468,-6.6903],[107.2843,-6.707],[107.2853,-6.7157],[107.2693,-6.7084],[107.2507,-6.7139],[107.2545,-6.7341],[107.2755,-6.7406],[107.2535,-6.7385],[107.2587,-6.7482],[107.2501,-6.7557],[107.266,-6.7418],[107.2711,-6.7529],[107.2843,-6.7515],[107.2611,-6.7562],[107.2623,-6.7744],[107.2511,-6.7891],[107.2504,-6.8057],[107.2531,-6.7887],[107.2736,-6.7678],[107.2821,-6.7747],[107.2794,-6.7838],[107.2881,-6.7814],[107.2901,-6.7901],[107.3134,-6.8008],[107.3243,-6.8518],[107.338,-6.8576],[107.3434,-6.8489],[107.3494,-6.8658],[107.3417,-6.8862],[107.3232,-6.8879],[107.2784,-6.9255],[107.2188,-6.9401],[107.2193,-6.9493],[107.1902,-6.9682],[107.1846,-6.9961],[107.1956,-7.0211],[107.182,-7.0582],[107.2237,-7.0585],[107.2246,-7.0491],[107.2527,-7.0487],[107.2853,-7.0848],[107.2957,-7.0905],[107.2993,-7.0839],[107.3112,-7.0973],[107.3152,-7.1532],[107.2534,-7.1955],[107.2514,-7.2077],[107.3253,-7.2038],[107.3461,-7.2385],[107.3798,-7.2417],[107.4243,-7.2602],[107.4766,-7.2565],[107.4549,-7.2921],[107.4846,-7.3569],[107.4738,-7.4015],[107.4319,-7.4236],[107.4203,-7.4624],[107.4261,-7.5028],[107.3935,-7.4948],[107.3522,-7.4999],[107.2477,-7.4891],[107.0859,-7.4533],[106.8801,-7.4347],[106.8842,-7.4302],[106.7941,-7.4366],[106.7928,-7.4151],[106.7892,-7.4088],[106.7808,-7.4156],[106.7771,-7.402],[106.7951,-7.3968],[106.8231,-7.3625],[106.8586,-7.3542],[106.8557,-7.362],[106.8686,-7.3556],[106.8754,-7.364],[106.8768,-7.3535],[106.8953,-7.3414],[106.9094,-7.3493],[106.9151,-7.323],[106.9341,-7.3341],[106.9406,-7.3178],[106.9537,-7.3211],[106.9672,-7.3122],[106.976,-7.2844],[106.9603,-7.2603],[106.967,-7.2455],[106.98,-7.2412],[106.9826,-7.2222],[106.9679,-7.1962],[106.9747,-7.1856],[106.9578,-7.1645],[106.9674,-7.156],[106.9659,-7.1449],[106.937,-7.1228],[106.9483,-7.086],[106.9436,-7.0748],[106.9539,-7.0684],[106.9592,-7.0335],[106.9757,-7.0136],[106.9891,-7.017],[107.0075,-7.0367],[107.0388,-7.0434],[107.0475,-7.0315],[107.0429,-7.0232],[107.0497,-7.0048],[107.033,-6.9872],[107.0334,-6.9764],[107.0468,-6.9608],[107.065,-6.965],[107.0487,-6.9424],[107.0473,-6.9098],[107.0287,-6.8916],[107.0352,-6.8867],[107.0329,-6.8737],[107.0053,-6.8484],[106.9929,-6.8047],[106.9652,-6.7703],[106.9743,-6.7653],[106.9742,-6.7506],[106.9881,-6.7398],[106.9879,-6.7306],[106.9945,-6.738],[106.9989,-6.7317],[106.994,-6.7062],[107.0066,-6.6921],[106.991,-6.6685],[107.0513,-6.6566],[107.0685,-6.6652],[107.1211,-6.6633],[107.1346,-6.6705],[107.1504,-6.663],[107.1525,-6.6498],[107.1697,-6.6389],[107.1797,-6.6465],[107.2151,-6.6373],[107.2148,-6.6197],[107.2302,-6.6049]],[[107.2179,-7.2151],[107.2179,-7.2151],[107.2179,-7.2151],[107.2182,-7.215],[107.2186,-7.2146],[107.2186,-7.2145],[107.2186,-7.2145],[107.2182,-7.215],[107.2179,-7.2151]],[[107.2139,-7.2173],[107.2138,-7.2175],[107.2139,-7.2173],[107.214,-7.2171],[107.2141,-7.2171],[107.2143,-7.2169],[107.2146,-7.2168],[107.2147,-7.2167],[107.2149,-7.2166],[107.2151,-7.2163],[107.2152,-7.2162],[107.2152,-7.2162],[107.2151,-7.2163],[107.2149,-7.2166],[107.2147,-7.2167],[107.2145,-7.2168],[107.2143,-7.217],[107.2141,-7.2171],[107.214,-7.2171],[107.2139,-7.2173]],[[107.1999,-7.2244],[107.1999,-7.2243],[107.1999,-7.2244],[107.1997,-7.2245],[107.2023,-7.2275],[107.2043,-7.2304],[107.2076,-7.2334],[107.2108,-7.2366],[107.217,-7.2391],[107.217,-7.2391],[107.2108,-7.2366],[107.2076,-7.2334],[107.2043,-7.2304],[107.2023,-7.2275],[107.1997,-7.2245],[107.1999,-7.2244]],[[107.2208,-7.2362],[107.2208,-7.2362],[107.2209,-7.2362],[107.2209,-7.2361],[107.2208,-7.2362]],[[106.8139,-7.4045],[106.8139,-7.4045],[106.8138,-7.4046],[106.8138,-7.4047],[106.8138,-7.4046],[106.8139,-7.4045],[106.8141,-7.4045],[106.8143,-7.4042],[106.8145,-7.404],[106.8146,-7.4039],[106.8145,-7.4036],[106.8146,-7.403],[106.8146,-7.403],[106.8146,-7.4022],[106.8146,-7.4019],[106.8146,-7.4016],[106.8148,-7.4012],[106.8148,-7.4012],[106.8148,-7.4011],[106.8153,-7.4008],[106.8148,-7.4011],[106.8148,-7.4012],[106.8148,-7.4012],[106.8146,-7.4017],[106.8146,-7.4019],[106.8146,-7.4022],[106.8145,-7.403],[106.8146,-7.403],[106.8145,-7.4036],[106.8145,-7.4039],[106.8145,-7.404],[106.8143,-7.4042],[106.8141,-7.4045],[106.8139,-7.4045]]]]}},{"type":"Feature","properties":{"OBJECTID":4,"KABKOT":"BANDUNG","ID_KAB":3204,"PROVINSI":"JAWA BARAT"},"geometry":{"type":"MultiPolygon","coordinates":[[[[107.7331,-6.814],[107.75,-6.8128],[107.7408,-6.855],[107.7445,-6.8764],[107.7604,-6.8971],[107.7552,-6.956],[107.7814,-6.9551],[107.829,-6.972],[107.8313,-6.9645],[107.8459,-6.97],[107.9174,-6.9531],[107.9166,-6.9674],[107.9022,-6.9694],[107.8894,-6.9826],[107.9075,-6.9925],[107.9102,-7.0363],[107.9319,-7.038],[107.9245,-7.0532],[107.8766,-7.0503],[107.8372,-7.0671],[107.8307,-7.0908],[107.8099,-7.1018],[107.8113,-7.1365],[107.799,-7.1564],[107.7708,-7.1568],[107.766,-7.1717],[107.7398,-7.1673],[107.7216,-7.198],[107.7311,-7.2132],[107.7071,-7.2285],[107.7101,-7.2483],[107.739,-7.2667],[107.7224,-7.2897],[107.7313,-7.294],[107.7229,-7.3142],[107.6916,-7.309],[107.6762,-7.3161],[107.6577,-7.2898],[107.641,-7.304],[107.6275,-7.2986],[107.6052,-7.3078],[107.5992,-7.283],[107.5822,-7.2767],[107.5573,-7.2514],[107.546,-7.2578],[107.5352,-7.2514],[107.5007,-7.2572],[107.4806,-7.2514],[107.4243,-7.2602],[107.3798,-7.2417],[107.3461,-7.2385],[107.3253,-7.2038],[107.2514,-7.2077],[107.2534,-7.1955],[107.3152,-7.1532],[107.312,-7.1074],[107.3922,-7.1209],[107.4073,-7.1092],[107.4071,-7.0913],[107.4221,-7.0752],[107.4194,-7.0623],[107.4255,-7.057],[107.448,-7.0484],[107.4771,-7.0574],[107.4817,-7.0238],[107.4749,-7.0071],[107.4865,-7],[107.4881,-6.9798],[107.5035,-6.9829],[107.5188,-6.9637],[107.5321,-6.9415],[107.5226,-6.9355],[107.5305,-6.9166],[107.5438,-6.919],[107.5611,-6.9493],[107.5846,-6.9623],[107.6943,-6.9697],[107.716,-6.9617],[107.7131,-6.9475],[107.7382,-6.8996],[107.7261,-6.895],[107.7152,-6.9036],[107.7146,-6.8902],[107.7076,-6.8897],[107.7,-6.9082],[107.6808,-6.8894],[107.6681,-6.891],[107.6702,-6.884],[107.6565,-6.8943],[107.6465,-6.8885],[107.6423,-6.8938],[107.6326,-6.8893],[107.6234,-6.8637],[107.6607,-6.8321],[107.6924,-6.8291],[107.7034,-6.8403],[107.7184,-6.8341],[107.7265,-6.8108],[107.7331,-6.814]]]]}},{"type":"Feature","properties":{"OBJECTID":5,"KABKOT":"GARUT","ID_KAB":3205,"PROVINSI":"JAWA BARAT"},"geometry":{"type":"MultiPolygon","coordinates":[[[[107.9182,-6.9476],[107.9314,-6.9559],[107.9667,-6.9588],[107.9907,-6.982],[108.0232,-6.9818],[108.0427,-6.9966],[108.0644,-6.9951],[108.0738,-6.9821],[108.09,-6.9817],[108.1,-7.0194],[108.1291,-7.0408],[108.1361,-7.0605],[108.118,-7.0779],[108.126,-7.102],[108.1225,-7.1146],[108.1137,-7.1026],[108.099,-7.1029],[108.0685,-7.1289],[108.0845,-7.1621],[108.0699,-7.1771],[108.067,-7.1872],[108.0751,-7.1982],[108.0612,-7.2246],[108.0186,-7.2309],[107.9945,-7.2586],[107.9824,-7.2621],[107.9794,-7.2729],[107.9226,-7.2888],[107.9316,-7.303],[107.9285,-7.3126],[107.9402,-7.3162],[107.9463,-7.3305],[107.9293,-7.3386],[107.9283,-7.3506],[107.9045,-7.3626],[107.9338,-7.3884],[107.9362,-7.3999],[107.949,-7.4015],[107.9419,-7.4096],[107.9514,-7.4217],[107.9533,-7.4602],[107.9418,-7.5025],[107.947,-7.5396],[107.9314,-7.5605],[107.9403,-7.582],[107.9169,-7.5974],[107.9252,-7.6179],[107.9233,-7.652],[107.9303,-7.6573],[107.9233,-7.6653],[107.9312,-7.6825],[107.9271,-7.7003],[107.9068,-7.7372],[107.8747,-7.7401],[107.8433,-7.7352],[107.8349,-7.7062],[107.8101,-7.6876],[107.7209,-7.6668],[107.6901,-7.6682],[107.6739,-7.6267],[107.6251,-7.5981],[107.6012,-7.571],[107.4988,-7.5356],[107.4833,-7.5391],[107.4739,-7.5189],[107.4231,-7.5056],[107.4203,-7.4624],[107.4338,-7.4204],[107.4744,-7.4004],[107.4848,-7.3525],[107.4659,-7.327],[107.4549,-7.2921],[107.4801,-7.2515],[107.5007,-7.2572],[107.5352,-7.2514],[107.5456,-7.2578],[107.5575,-7.2515],[107.5822,-7.2767],[107.5992,-7.283],[107.6102,-7.3093],[107.6273,-7.2987],[107.6424,-7.3034],[107.6577,-7.2898],[107.6762,-7.3161],[107.6916,-7.309],[107.7229,-7.3142],[107.7313,-7.294],[107.7224,-7.2897],[107.739,-7.2667],[107.7101,-7.2483],[107.7071,-7.2285],[107.7311,-7.2132],[107.7216,-7.198],[107.7398,-7.1673],[107.766,-7.1717],[107.7708,-7.1568],[107.798,-7.1574],[107.8113,-7.1365],[107.8099,-7.1018],[107.8307,-7.0908],[107.8349,-7.0695],[107.8499,-7.0588],[107.8868,-7.0494],[107.9262,-7.0521],[107.9308,-7.033],[107.9102,-7.0363],[107.9075,-6.9925],[107.8894,-6.9826],[107.9022,-6.9694],[107.9166,-6.9674],[107.9182,-6.9476]]]]}},{"type":"Feature","properties":{"OBJECTID":6,"KABKOT":"TASIKMALAYA","ID_KAB":3206,"PROVINSI":"JAWA BARAT"},"geometry":{"type":"MultiPolygon","coordinates":[[[[108.1328,-7.0392],[108.1621,-7.0741],[108.191,-7.0701],[108.209,-7.0877],[108.2134,-7.0816],[108.2219,-7.0859],[108.2133,-7.1114],[108.2198,-7.1235],[108.2137,-7.1347],[108.2011,-7.1377],[108.2031,-7.1522],[108.1907,-7.1675],[108.1921,-7.1874],[108.1996,-7.1897],[108.1989,-7.2316],[108.1885,-7.2552],[108.1931,-7.2693],[108.1789,-7.2721],[108.1761,-7.2886],[108.1497,-7.2877],[108.1614,-7.3181],[108.1526,-7.335],[108.1682,-7.3467],[108.1634,-7.3632],[108.1742,-7.3928],[108.1855,-7.3952],[108.1809,-7.4089],[108.1938,-7.441],[108.1873,-7.4468],[108.1999,-7.4505],[108.2128,-7.435],[108.2308,-7.4307],[108.2291,-7.4255],[108.2655,-7.434],[108.2763,-7.417],[108.278,-7.3995],[108.2711,-7.3936],[108.2825,-7.3852],[108.2637,-7.3742],[108.2936,-7.3587],[108.2821,-7.3515],[108.2922,-7.3407],[108.3011,-7.3444],[108.3101,-7.3374],[108.3241,-7.3403],[108.3298,-7.3502],[108.3373,-7.3459],[108.3414,-7.3565],[108.3624,-7.3525],[108.3726,-7.3599],[108.4055,-7.3608],[108.4117,-7.3769],[108.3956,-7.4122],[108.4203,-7.4225],[108.4264,-7.4741],[108.4216,-7.4889],[108.4425,-7.4887],[108.4295,-7.5005],[108.4173,-7.4882],[108.4104,-7.4981],[108.4006,-7.4782],[108.3736,-7.4786],[108.3338,-7.5111],[108.3365,-7.5283],[108.3275,-7.5508],[108.3536,-7.5622],[108.3612,-7.6004],[108.3534,-7.6387],[108.3662,-7.6586],[108.3542,-7.6722],[108.3548,-7.6837],[108.3403,-7.6797],[108.3319,-7.6853],[108.3364,-7.6913],[108.3237,-7.683],[108.3245,-7.6931],[108.3143,-7.6904],[108.3238,-7.7128],[108.3319,-7.7126],[108.3237,-7.7201],[108.3155,-7.7124],[108.312,-7.7187],[108.3217,-7.723],[108.3127,-7.7244],[108.3236,-7.7467],[108.325,-7.7786],[108.3178,-7.7863],[108.3408,-7.8169],[108.1413,-7.7851],[108.0071,-7.7469],[107.9096,-7.7323],[107.9313,-7.686],[107.9236,-7.6767],[107.9303,-7.6573],[107.9233,-7.652],[107.9252,-7.6179],[107.917,-7.597],[107.9406,-7.5814],[107.9314,-7.5605],[107.9466,-7.5418],[107.9418,-7.5025],[107.9533,-7.4602],[107.9514,-7.4217],[107.9419,-7.4096],[107.949,-7.4015],[107.9362,-7.3999],[107.9338,-7.3884],[107.9045,-7.3626],[107.9283,-7.3506],[107.9293,-7.3386],[107.9463,-7.3305],[107.9402,-7.3162],[107.9285,-7.3126],[107.9316,-7.303],[107.9226,-7.2888],[107.9794,-7.2729],[107.9824,-7.2621],[107.9945,-7.2586],[108.0186,-7.2309],[108.0624,-7.2232],[108.0751,-7.1982],[108.067,-7.1872],[108.0699,-7.1771],[108.0845,-7.1621],[108.0807,-7.1429],[108.068,-7.1301],[108.099,-7.1029],[108.1137,-7.1026],[108.1225,-7.1146],[108.126,-7.102],[108.118,-7.0779],[108.136,-7.0609],[108.1278,-7.0433],[108.1328,-7.0392]]]]}},{"type":"Feature","properties":{"OBJECTID":7,"KABKOT":"CIAMIS","ID_KAB":3207,"PROVINSI":"JAWA BARAT"},"geometry":{"type":"MultiPolygon","coordinates":[[[[108.36,-7.0516],[108.417,-7.0901],[108.4133,-7.0943],[108.4266,-7.0955],[108.4424,-7.1188],[108.4794,-7.119],[108.4953,-7.1311],[108.5086,-7.13],[108.5155,-7.1455],[108.5089,-7.1596],[108.519,-7.1606],[108.5265,-7.1737],[108.5213,-7.1754],[108.5809,-7.2063],[108.5852,-7.2184],[108.5816,-7.2537],[108.5732,-7.2544],[108.567,-7.2787],[108.5559,-7.2882],[108.5636,-7.3202],[108.5508,-7.325],[108.5506,-7.3416],[108.535,-7.3436],[108.5227,-7.3585],[108.5014,-7.3584],[108.4895,-7.3498],[108.4698,-7.3619],[108.4757,-7.3647],[108.4694,-7.3817],[108.5342,-7.4161],[108.5442,-7.4121],[108.5687,-7.4376],[108.5947,-7.4072],[108.5906,-7.395],[108.6,-7.3937],[108.6154,-7.406],[108.6306,-7.3818],[108.6505,-7.3873],[108.6659,-7.3529],[108.6832,-7.3695],[108.6779,-7.3767],[108.6852,-7.3798],[108.6871,-7.3995],[108.6969,-7.3998],[108.6997,-7.4149],[108.7233,-7.431],[108.7125,-7.4576],[108.7159,-7.4667],[108.7064,-7.4764],[108.6967,-7.4611],[108.6681,-7.4599],[108.6471,-7.4688],[108.6579,-7.4974],[108.654,-7.5292],[108.6226,-7.555],[108.5754,-7.5666],[108.5495,-7.5569],[108.5447,-7.5698],[108.5288,-7.5711],[108.5209,-7.5443],[108.5423,-7.5379],[108.5187,-7.5259],[108.4851,-7.5361],[108.4724,-7.5182],[108.4297,-7.5013],[108.4422,-7.4882],[108.4216,-7.4889],[108.4264,-7.4741],[108.4203,-7.4225],[108.3953,-7.4113],[108.4117,-7.3769],[108.4055,-7.3608],[108.3726,-7.3599],[108.3624,-7.3525],[108.3414,-7.3565],[108.3373,-7.3459],[108.3298,-7.3502],[108.3236,-7.34],[108.278,-7.3341],[108.2696,-7.3195],[108.2526,-7.3213],[108.2495,-7.3131],[108.2018,-7.2862],[108.1885,-7.2632],[108.199,-7.2312],[108.1996,-7.1897],[108.1921,-7.1874],[108.1907,-7.1675],[108.2031,-7.1522],[108.2011,-7.1377],[108.2137,-7.1347],[108.2198,-7.1235],[108.2133,-7.1114],[108.2219,-7.0859],[108.2134,-7.0816],[108.209,-7.0877],[108.204,-7.0772],[108.1699,-7.0592],[108.1936,-7.0587],[108.2,-7.0663],[108.2267,-7.0546],[108.2455,-7.0667],[108.3219,-7.0556],[108.3407,-7.0713],[108.3481,-7.0554],[108.36,-7.0516]]]]}},{"type":"Feature","properties":{"OBJECTID":8,"KABKOT":"PANGANDARAN","ID_KAB":3218,"PROVINSI":"JAWA BARAT"},"geometry":{"type":"MultiPolygon","coordinates":[[[[108.6694,-7.4601],[108.6967,-7.4611],[108.7042,-7.4767],[108.7158,-7.4663],[108.7199,-7.4713],[108.7548,-7.5597],[108.7485,-7.5673],[108.7506,-7.5919],[108.741,-7.5925],[108.7322,-7.6137],[108.7417,-7.6137],[108.75,-7.6345],[108.7853,-7.6589],[108.7864,-7.6681],[108.7995,-7.6679],[108.7941,-7.6931],[108.7768,-7.6995],[108.7809,-7.6851],[108.7741,-7.6845],[108.7733,-7.697],[108.7726,-7.6895],[108.7599,-7.6962],[108.7368,-7.6817],[108.6878,-7.6784],[108.6599,-7.6997],[108.678,-7.7215],[108.6698,-7.731],[108.6509,-7.719],[108.6481,-7.7105],[108.6562,-7.7005],[108.6407,-7.6877],[108.5909,-7.682],[108.5312,-7.6931],[108.4978,-7.7193],[108.5039,-7.729],[108.4976,-7.747],[108.508,-7.7637],[108.5028,-7.7853],[108.4802,-7.8051],[108.451,-7.8137],[108.4498,-7.8231],[108.3758,-7.8133],[108.3425,-7.8193],[108.3179,-7.7867],[108.325,-7.7786],[108.3236,-7.7467],[108.3127,-7.7244],[108.3217,-7.723],[108.312,-7.7187],[108.3155,-7.7124],[108.3237,-7.7201],[108.3319,-7.7134],[108.3238,-7.7128],[108.3144,-7.69],[108.3245,-7.6931],[108.3237,-7.683],[108.3364,-7.6913],[108.3319,-7.6853],[108.3403,-7.6797],[108.3548,-7.6837],[108.3542,-7.6722],[108.3661,-7.6595],[108.3534,-7.6387],[108.3612,-7.6004],[108.3536,-7.5622],[108.3275,-7.5508],[108.3354,-7.5084],[108.372,-7.4792],[108.3973,-7.4773],[108.4104,-7.4981],[108.4183,-7.4884],[108.4361,-7.5073],[108.4724,-7.5182],[108.4851,-7.5361],[108.5276,-7.5269],[108.5423,-7.5379],[108.5209,-7.5443],[108.5288,-7.5711],[108.5447,-7.5698],[108.5495,-7.5569],[108.5773,-7.5666],[108.6226,-7.555],[108.6482,-7.5379],[108.6579,-7.4982],[108.6471,-7.4688],[108.6694,-7.4601]]]]}},{"type":"Feature","properties":{"OBJECTID":9,"KABKOT":"KUNINGAN","ID_KAB":3208,"PROVINSI":"JAWA BARAT"},"geometry":{"type":"MultiPolygon","coordinates":[[[[108.4211,-6.7841],[108.4533,-6.7838],[108.4559,-6.7991],[108.4693,-6.7984],[108.471,-6.7874],[108.4783,-6.7991],[108.486,-6.7892],[108.5125,-6.7912],[108.505,-6.8229],[108.5119,-6.8286],[108.5081,-6.852],[108.5247,-6.8576],[108.5232,-6.8704],[108.5365,-6.8684],[108.5337,-6.8801],[108.5992,-6.9038],[108.612,-6.8964],[108.6374,-6.9112],[108.6559,-6.9018],[108.6658,-6.9172],[108.6524,-6.9316],[108.656,-6.9367],[108.6661,-6.9406],[108.6829,-6.9233],[108.6832,-6.9315],[108.7155,-6.9438],[108.7256,-6.9627],[108.7175,-6.9943],[108.7361,-7.0063],[108.7468,-6.9858],[108.7782,-6.9934],[108.7911,-7.0235],[108.7747,-7.0351],[108.7855,-7.0573],[108.7709,-7.1118],[108.726,-7.1153],[108.6982,-7.1504],[108.6761,-7.1566],[108.6586,-7.1556],[108.6349,-7.1387],[108.5922,-7.1502],[108.5625,-7.1709],[108.5659,-7.1803],[108.5555,-7.1932],[108.5278,-7.182],[108.519,-7.1606],[108.5095,-7.1608],[108.5155,-7.1455],[108.5086,-7.13],[108.4953,-7.1311],[108.4794,-7.119],[108.4424,-7.1188],[108.4266,-7.0955],[108.4133,-7.0943],[108.417,-7.0901],[108.3857,-7.073],[108.3914,-7.0212],[108.383,-7.0057],[108.3857,-6.9528],[108.4014,-6.9351],[108.4078,-6.8808],[108.401,-6.8299],[108.4133,-6.803],[108.4092,-6.7902],[108.4211,-6.7841]]]]}},{"type":"Feature","properties":{"OBJECTID":10,"KABKOT":"CIREBON","ID_KAB":3209,"PROVINSI":"JAWA BARAT"},"geometry":{"type":"MultiPolygon","coordinates":[[[[108.685,-6.7699],[108.6841,-6.7702],[108.6839,-6.7702],[108.6838,-6.7702],[108.6836,-6.77],[108.6834,-6.7701],[108.6832,-6.7703],[108.6828,-6.7705],[108.6824,-6.7708],[108.6822,-6.7711],[108.6821,-6.7714],[108.682,-6.7716],[108.6819,-6.7716],[108.6817,-6.7715],[108.6815,-6.7714],[108.6814,-6.7711],[108.6814,-6.7707],[108.6815,-6.7705],[108.6817,-6.7703],[108.6818,-6.7701],[108.6826,-6.7699],[108.6829,-6.7698],[108.6831,-6.7697],[108.6834,-6.769],[108.6835,-6.7689],[108.6836,-6.7689],[108.6837,-6.7688],[108.6842,-6.7689],[108.6847,-6.7691],[108.6849,-6.7693],[108.6851,-6.7695],[108.6858,-6.7695],[108.6859,-6.7695],[108.6859,-6.7696],[108.6855,-6.7698],[108.685,-6.7699]]],[[[108.5384,-6.5174],[108.5462,-6.5367],[108.5433,-6.5909],[108.5627,-6.6909],[108.5481,-6.701],[108.5429,-6.6964],[108.5472,-6.7266],[108.5343,-6.7256],[108.5187,-6.7369],[108.5349,-6.7579],[108.5305,-6.7832],[108.5432,-6.7955],[108.5533,-6.7862],[108.5604,-6.7569],[108.5949,-6.7454],[108.6022,-6.7627],[108.627,-6.7716],[108.653,-6.7532],[108.6747,-6.7586],[108.6826,-6.7681],[108.6767,-6.7831],[108.6875,-6.802],[108.7499,-6.8158],[108.8061,-6.7856],[108.8037,-6.7605],[108.8101,-6.7578],[108.7964,-6.7421],[108.8119,-6.7365],[108.8153,-6.7485],[108.8338,-6.758],[108.8269,-6.7699],[108.8327,-6.8007],[108.8255,-6.8028],[108.8248,-6.8323],[108.7926,-6.8804],[108.7791,-6.8746],[108.7713,-6.8953],[108.7612,-6.8964],[108.7669,-6.902],[108.7527,-6.9214],[108.7641,-6.9388],[108.7571,-6.9578],[108.7629,-6.9709],[108.7587,-6.9836],[108.744,-6.987],[108.7373,-7.006],[108.7175,-6.9943],[108.7256,-6.9627],[108.7155,-6.9438],[108.6832,-6.9315],[108.6829,-6.9233],[108.6661,-6.9406],[108.6528,-6.9337],[108.6658,-6.9172],[108.6559,-6.9018],[108.6378,-6.9112],[108.612,-6.8964],[108.5992,-6.9038],[108.5337,-6.8801],[108.5365,-6.8684],[108.523,-6.8703],[108.5247,-6.8576],[108.5081,-6.852],[108.5119,-6.8286],[108.505,-6.8229],[108.5125,-6.7912],[108.486,-6.7892],[108.4783,-6.7991],[108.471,-6.7874],[108.4693,-6.7984],[108.4559,-6.7991],[108.4498,-6.7828],[108.4047,-6.7879],[108.399,-6.7736],[108.3588,-6.7506],[108.3702,-6.7332],[108.3583,-6.7138],[108.3682,-6.6977],[108.3585,-6.6812],[108.3395,-6.6741],[108.346,-6.625],[108.3235,-6.6208],[108.3286,-6.5984],[108.3536,-6.5756],[108.3605,-6.5554],[108.4311,-6.5204],[108.4468,-6.5321],[108.4485,-6.5708],[108.456,-6.5729],[108.4753,-6.5583],[108.4883,-6.5584],[108.4907,-6.5455],[108.5255,-6.5175],[108.5384,-6.5174]]]]}},{"type":"Feature","properties":{"OBJECTID":11,"KABKOT":"MAJALENGKA","ID_KAB":3210,"PROVINSI":"JAWA BARAT"},"geometry":{"type":"MultiPolygon","coordinates":[[[[108.1225,-6.5426],[108.1322,-6.555],[108.1279,-6.5658],[108.1421,-6.5653],[108.1459,-6.6004],[108.1594,-6.6126],[108.1735,-6.6057],[108.1877,-6.6098],[108.2101,-6.5732],[108.2763,-6.5915],[108.2726,-6.6096],[108.2808,-6.6206],[108.2925,-6.6209],[108.2894,-6.6087],[108.3086,-6.6239],[108.3154,-6.6078],[108.3227,-6.6206],[108.346,-6.625],[108.3395,-6.6741],[108.3585,-6.6812],[108.3689,-6.7022],[108.3583,-6.7138],[108.3704,-6.7319],[108.3588,-6.7506],[108.365,-6.7594],[108.3866,-6.7637],[108.4127,-6.7929],[108.401,-6.8299],[108.4078,-6.8808],[108.4015,-6.9345],[108.385,-6.959],[108.3831,-7.0067],[108.3914,-7.0212],[108.3858,-7.0735],[108.3778,-7.0599],[108.36,-7.0516],[108.3481,-7.0554],[108.3407,-7.0713],[108.3219,-7.0556],[108.2455,-7.0667],[108.2267,-7.0546],[108.2,-7.0663],[108.1936,-7.0587],[108.1699,-7.0592],[108.1762,-7.0677],[108.1638,-7.0745],[108.1335,-7.0406],[108.165,-6.9985],[108.171,-6.9687],[108.22,-6.9276],[108.2114,-6.9152],[108.2161,-6.9027],[108.2099,-6.9066],[108.2145,-6.8892],[108.2064,-6.8931],[108.1942,-6.8862],[108.199,-6.8712],[108.1895,-6.8654],[108.1888,-6.853],[108.1798,-6.8523],[108.1791,-6.8331],[108.1644,-6.8349],[108.1605,-6.8098],[108.1529,-6.804],[108.1699,-6.7863],[108.1643,-6.7614],[108.1488,-6.7583],[108.162,-6.7246],[108.1381,-6.7073],[108.1181,-6.7066],[108.0919,-6.6727],[108.0683,-6.6654],[108.07,-6.6571],[108.0539,-6.6531],[108.0505,-6.6382],[108.0422,-6.6371],[108.0491,-6.6234],[108.0709,-6.6141],[108.0734,-6.5752],[108.1048,-6.5621],[108.1225,-6.5426]]]]}},{"type":"Feature","properties":{"OBJECTID":12,"KABKOT":"SUMEDANG","ID_KAB":3211,"PROVINSI":"JAWA BARAT"},"geometry":{"type":"MultiPolygon","coordinates":[[[[107.857,-6.5796],[107.9091,-6.596],[107.9403,-6.6256],[107.9702,-6.6388],[107.9888,-6.6696],[108.0256,-6.6778],[108.0348,-6.6546],[108.0319,-6.6371],[108.0499,-6.6376],[108.0539,-6.6531],[108.0919,-6.6727],[108.1181,-6.7066],[108.1381,-6.7073],[108.162,-6.7246],[108.1488,-6.7583],[108.1643,-6.7614],[108.1699,-6.7863],[108.1529,-6.804],[108.1605,-6.8098],[108.1644,-6.8349],[108.1791,-6.8331],[108.1798,-6.8523],[108.1888,-6.853],[108.1895,-6.8654],[108.199,-6.8712],[108.1942,-6.8862],[108.2064,-6.8931],[108.2145,-6.8892],[108.2099,-6.9066],[108.2161,-6.9027],[108.2114,-6.9152],[108.22,-6.9276],[108.171,-6.9687],[108.165,-6.9985],[108.1356,-7.0393],[108.1001,-7.0195],[108.0871,-6.9803],[108.0738,-6.9821],[108.0646,-6.995],[108.0427,-6.9966],[108.0232,-6.9818],[107.9907,-6.982],[107.9667,-6.9588],[107.9314,-6.9559],[107.9159,-6.9457],[107.9127,-6.9545],[107.9002,-6.953],[107.8899,-6.9639],[107.8459,-6.97],[107.8313,-6.9645],[107.829,-6.972],[107.7814,-6.9551],[107.7552,-6.956],[107.7604,-6.8971],[107.7439,-6.8742],[107.7456,-6.8237],[107.75,-6.8128],[107.7766,-6.8011],[107.8045,-6.8085],[107.8374,-6.7761],[107.8396,-6.7228],[107.8334,-6.7173],[107.8404,-6.6917],[107.8099,-6.6775],[107.8409,-6.6652],[107.8518,-6.6524],[107.8507,-6.607],[107.8568,-6.5999],[107.8479,-6.5862],[107.857,-6.5796]]]]}},{"type":"Feature","properties":{"OBJECTID":13,"KABKOT":"INDRAMAYU","ID_KAB":3212,"PROVINSI":"JAWA BARAT"},"geometry":{"type":"MultiPolygon","coordinates":[[[[108.3671,-6.2722],[108.3669,-6.2722],[108.3668,-6.2722],[108.3666,-6.272],[108.3666,-6.2719],[108.3669,-6.2715],[108.3671,-6.2713],[108.3671,-6.2711],[108.3671,-6.2708],[108.367,-6.2705],[108.3668,-6.2698],[108.3668,-6.2696],[108.3669,-6.2691],[108.3669,-6.2686],[108.3669,-6.2683],[108.3668,-6.2681],[108.3668,-6.2679],[108.3667,-6.2675],[108.3666,-6.2669],[108.3665,-6.2666],[108.3664,-6.2664],[108.366,-6.2661],[108.366,-6.2661],[108.3661,-6.266],[108.3664,-6.2662],[108.3667,-6.2666],[108.3668,-6.2669],[108.3672,-6.2681],[108.3672,-6.2687],[108.3673,-6.2697],[108.3674,-6.2707],[108.3675,-6.2713],[108.3675,-6.2718],[108.3675,-6.272],[108.3674,-6.2721],[108.3671,-6.2722]]],[[[108.1967,-6.2307],[108.2172,-6.2377],[108.2205,-6.25],[108.2313,-6.2407],[108.2403,-6.2434],[108.2316,-6.2367],[108.2625,-6.2482],[108.2998,-6.2488],[108.3349,-6.2749],[108.3407,-6.2463],[108.36,-6.2455],[108.3749,-6.2956],[108.3675,-6.3123],[108.3831,-6.3529],[108.4524,-6.434],[108.5397,-6.4837],[108.5381,-6.5164],[108.5028,-6.534],[108.487,-6.5593],[108.4753,-6.5583],[108.4546,-6.5731],[108.4485,-6.5708],[108.4489,-6.5371],[108.4376,-6.5221],[108.3937,-6.5345],[108.3856,-6.5475],[108.3605,-6.5554],[108.3536,-6.5756],[108.3286,-6.5984],[108.3236,-6.6208],[108.3154,-6.6078],[108.3077,-6.6242],[108.293,-6.6092],[108.2855,-6.6117],[108.2939,-6.6154],[108.2907,-6.6222],[108.2752,-6.6165],[108.2739,-6.59],[108.2101,-6.5732],[108.1877,-6.6098],[108.1735,-6.6057],[108.1583,-6.6122],[108.1459,-6.6004],[108.1421,-6.5653],[108.1279,-6.5658],[108.1322,-6.555],[108.1198,-6.5412],[108.1048,-6.5621],[108.0734,-6.5752],[108.0709,-6.6141],[108.0491,-6.6234],[108.0428,-6.6406],[108.032,-6.6369],[108.0348,-6.6546],[108.0253,-6.6779],[107.9888,-6.6696],[107.9702,-6.6388],[107.9403,-6.6256],[107.9053,-6.5935],[107.8518,-6.5756],[107.8937,-6.5571],[107.8939,-6.5465],[107.9093,-6.5394],[107.9083,-6.5287],[107.9202,-6.5145],[107.9155,-6.501],[107.9057,-6.5054],[107.9078,-6.4961],[107.9195,-6.4939],[107.9131,-6.4912],[107.9188,-6.4858],[107.8983,-6.485],[107.8951,-6.4627],[107.8789,-6.4572],[107.8889,-6.4578],[107.8948,-6.4489],[107.8905,-6.4036],[107.8989,-6.4062],[107.8981,-6.3903],[107.9235,-6.3599],[107.9166,-6.3475],[107.9283,-6.3275],[107.918,-6.3235],[107.928,-6.3249],[107.9305,-6.3097],[107.9219,-6.3108],[107.9254,-6.2796],[107.9118,-6.2698],[107.9259,-6.2617],[107.9191,-6.2489],[107.956,-6.2602],[108.0459,-6.3106],[108.0888,-6.3192],[108.1077,-6.3341],[108.1274,-6.3346],[108.1366,-6.3188],[108.1896,-6.2962],[108.1917,-6.2817],[108.2103,-6.2736],[108.2028,-6.2416],[108.1885,-6.2338],[108.1967,-6.2307]],[[107.8969,-6.4194],[107.8963,-6.4196],[107.8966,-6.4196],[107.8969,-6.4196],[107.8974,-6.4199],[107.8979,-6.4202],[107.8979,-6.4191],[107.898,-6.4191],[107.898,-6.419],[107.8978,-6.4191],[107.8978,-6.4191],[107.8973,-6.4193],[107.8969,-6.4194]]]]}},{"type":"Feature","properties":{"OBJECTID":14,"KABKOT":"SUBANG","ID_KAB":3213,"PROVINSI":"JAWA BARAT"},"geometry":{"type":"MultiPolygon","coordinates":[[[[107.8979,-6.4191],[107.8979,-6.4202],[107.8974,-6.4199],[107.8969,-6.4196],[107.8966,-6.4196],[107.8963,-6.4196],[107.8969,-6.4194],[107.8973,-6.4193],[107.8978,-6.4191],[107.8978,-6.4191],[107.898,-6.419],[107.898,-6.4191],[107.8979,-6.4191]]],[[[107.8236,-6.1874],[107.8531,-6.1909],[107.8579,-6.2159],[107.8723,-6.2147],[107.8749,-6.199],[107.888,-6.1999],[107.8962,-6.1918],[107.9034,-6.2132],[107.8898,-6.2091],[107.8952,-6.2286],[107.8827,-6.232],[107.9264,-6.2564],[107.9118,-6.2698],[107.9254,-6.2796],[107.9219,-6.3108],[107.9305,-6.3097],[107.928,-6.3249],[107.918,-6.3235],[107.9283,-6.3275],[107.9166,-6.3475],[107.9235,-6.3599],[107.8981,-6.3903],[107.8989,-6.4062],[107.8905,-6.4036],[107.8948,-6.4489],[107.8889,-6.4578],[107.8789,-6.4572],[107.8951,-6.4627],[107.8983,-6.485],[107.9188,-6.4858],[107.9131,-6.4912],[107.9195,-6.4939],[107.9078,-6.4961],[107.9057,-6.5054],[107.9155,-6.501],[107.9202,-6.5145],[107.9083,-6.5287],[107.9093,-6.5394],[107.8939,-6.5465],[107.8937,-6.5571],[107.8844,-6.5568],[107.8777,-6.5684],[107.8513,-6.5718],[107.8556,-6.579],[107.8479,-6.5862],[107.8568,-6.5999],[107.8507,-6.607],[107.8518,-6.6524],[107.8409,-6.6652],[107.8099,-6.6775],[107.8404,-6.6917],[107.8334,-6.7173],[107.8396,-6.7228],[107.8374,-6.7761],[107.8041,-6.8087],[107.7803,-6.8007],[107.7335,-6.8143],[107.7076,-6.7929],[107.688,-6.7983],[107.6711,-6.7763],[107.629,-6.7741],[107.6185,-6.7601],[107.6006,-6.7611],[107.6024,-6.7361],[107.5883,-6.7153],[107.5949,-6.7066],[107.5888,-6.6859],[107.6016,-6.654],[107.5795,-6.6339],[107.5904,-6.5998],[107.5645,-6.5676],[107.5539,-6.5666],[107.5637,-6.5279],[107.5548,-6.5173],[107.5655,-6.4872],[107.5453,-6.4702],[107.5433,-6.4482],[107.5269,-6.4373],[107.5265,-6.4258],[107.5396,-6.4038],[107.5378,-6.387],[107.562,-6.3587],[107.5827,-6.3124],[107.5806,-6.2565],[107.5994,-6.253],[107.6004,-6.2379],[107.6399,-6.2146],[107.6641,-6.2455],[107.6868,-6.2407],[107.6977,-6.2229],[107.7334,-6.2372],[107.7489,-6.2247],[107.7537,-6.2289],[107.7652,-6.2144],[107.8132,-6.1996],[107.8236,-6.1874]]]]}},{"type":"Feature","properties":{"OBJECTID":15,"KABKOT":"PURWAKARTA","ID_KAB":3214,"PROVINSI":"JAWA BARAT"},"geometry":{"type":"MultiPolygon","coordinates":[[[[107.5064,-6.4113],[107.5136,-6.4213],[107.5294,-6.4184],[107.5267,-6.437],[107.5421,-6.4458],[107.5453,-6.4702],[107.5654,-6.487],[107.5548,-6.5174],[107.5637,-6.5277],[107.5557,-6.5406],[107.5624,-6.5468],[107.5535,-6.5645],[107.5645,-6.5676],[107.5903,-6.5996],[107.5797,-6.6354],[107.6016,-6.654],[107.5888,-6.6859],[107.5949,-6.7066],[107.5883,-6.7153],[107.5961,-6.7289],[107.579,-6.729],[107.5684,-6.7433],[107.5783,-6.7759],[107.5505,-6.7737],[107.5176,-6.7439],[107.4874,-6.7353],[107.4536,-6.701],[107.4251,-6.7],[107.4102,-6.6885],[107.396,-6.6957],[107.3728,-6.6899],[107.3705,-6.7011],[107.3359,-6.6874],[107.3255,-6.6925],[107.3216,-6.7178],[107.3155,-6.7142],[107.3118,-6.7208],[107.3014,-6.7206],[107.3006,-6.7073],[107.2931,-6.7034],[107.2924,-6.709],[107.2804,-6.7],[107.2878,-6.7055],[107.2802,-6.7078],[107.2501,-6.6965],[107.2468,-6.6903],[107.2594,-6.68],[107.2638,-6.6358],[107.2204,-6.5901],[107.2504,-6.5734],[107.265,-6.5553],[107.2726,-6.536],[107.2839,-6.5299],[107.2855,-6.5048],[107.3278,-6.4844],[107.3903,-6.4998],[107.3732,-6.4683],[107.4333,-6.4595],[107.4612,-6.4267],[107.4779,-6.432],[107.4934,-6.4136],[107.5064,-6.4113]],[[107.3373,-6.4987],[107.3266,-6.4931],[107.329,-6.503],[107.3068,-6.5015],[107.3254,-6.5148],[107.3262,-6.5243],[107.318,-6.5315],[107.2996,-6.525],[107.3041,-6.5381],[107.3002,-6.5324],[107.2855,-6.5497],[107.2952,-6.5627],[107.2903,-6.5832],[107.2964,-6.5948],[107.29,-6.5965],[107.2971,-6.6005],[107.288,-6.606],[107.2988,-6.6136],[107.2842,-6.6097],[107.2957,-6.6167],[107.2819,-6.622],[107.2968,-6.6275],[107.2845,-6.6343],[107.3003,-6.6318],[107.2905,-6.6394],[107.2925,-6.6524],[107.2959,-6.6438],[107.3096,-6.6415],[107.3045,-6.6318],[107.3136,-6.6398],[107.3079,-6.6318],[107.3128,-6.6246],[107.2983,-6.6233],[107.31,-6.6187],[107.3001,-6.6055],[107.3069,-6.5912],[107.3144,-6.5916],[107.3087,-6.5834],[107.3144,-6.5755],[107.3035,-6.5642],[107.3345,-6.5484],[107.3277,-6.5414],[107.3615,-6.5635],[107.362,-6.5563],[107.3694,-6.5715],[107.3715,-6.5571],[107.3794,-6.5534],[107.3974,-6.5635],[107.3907,-6.5773],[107.4017,-6.5815],[107.4108,-6.5742],[107.3983,-6.5701],[107.4071,-6.5506],[107.386,-6.5418],[107.3927,-6.5391],[107.393,-6.525],[107.3373,-6.4987]]]]}},{"type":"Feature","properties":{"OBJECTID":16,"KABKOT":"KARAWANG","ID_KAB":3215,"PROVINSI":"JAWA BARAT"},"geometry":{"type":"MultiPolygon","coordinates":[[[[107.1127,-5.9552],[107.1329,-5.9768],[107.1652,-5.988],[107.2851,-5.9589],[107.3406,-5.9695],[107.3998,-6.032],[107.4682,-6.1445],[107.5414,-6.1784],[107.5859,-6.1901],[107.6221,-6.1883],[107.6436,-6.215],[107.6004,-6.2379],[107.5994,-6.253],[107.5806,-6.2564],[107.5827,-6.3124],[107.562,-6.3587],[107.5378,-6.387],[107.5348,-6.415],[107.5137,-6.4213],[107.5028,-6.4079],[107.4783,-6.4319],[107.4612,-6.4267],[107.4333,-6.4595],[107.3732,-6.4683],[107.3903,-6.4998],[107.3664,-6.4966],[107.3504,-6.4856],[107.3058,-6.491],[107.2855,-6.5048],[107.2839,-6.5299],[107.2726,-6.536],[107.2504,-6.5734],[107.2205,-6.5907],[107.1931,-6.5783],[107.1642,-6.502],[107.1818,-6.4678],[107.1997,-6.4607],[107.2089,-6.4686],[107.2169,-6.4614],[107.2054,-6.4519],[107.2117,-6.4493],[107.1962,-6.423],[107.2214,-6.4081],[107.2212,-6.3842],[107.2048,-6.3757],[107.215,-6.3499],[107.2266,-6.3492],[107.2147,-6.33],[107.2247,-6.3206],[107.2174,-6.3151],[107.2239,-6.3163],[107.2331,-6.299],[107.2385,-6.3061],[107.2365,-6.2967],[107.255,-6.2948],[107.2761,-6.267],[107.2691,-6.232],[107.2837,-6.2259],[107.2722,-6.2169],[107.291,-6.217],[107.2966,-6.2029],[107.2786,-6.162],[107.2927,-6.1414],[107.2824,-6.148],[107.2812,-6.1276],[107.2706,-6.1297],[107.2653,-6.1113],[107.2485,-6.1161],[107.2468,-6.1011],[107.2216,-6.1039],[107.1891,-6.0893],[107.1857,-6.0766],[107.177,-6.0817],[107.1596,-6.0677],[107.1436,-6.0713],[107.1405,-6.0572],[107.1303,-6.0615],[107.1362,-6.0496],[107.1266,-6.0543],[107.1113,-6.0289],[107.0939,-6.0274],[107.1016,-6.0162],[107.0846,-6.0023],[107.0844,-5.9908],[107.1004,-5.9362],[107.1127,-5.9552]]]]}},{"type":"Feature","properties":{"OBJECTID":17,"KABKOT":"BEKASI","ID_KAB":3216,"PROVINSI":"JAWA BARAT"},"geometry":{"type":"MultiPolygon","coordinates":[[[[107.1302,-6.4693],[107.1301,-6.4693],[107.1302,-6.4692],[107.1302,-6.4693]]],[[[107.0316,-5.9139],[107.07,-5.9327],[107.1001,-5.9352],[107.0846,-6.0023],[107.1016,-6.0162],[107.0943,-6.0277],[107.1113,-6.0289],[107.1266,-6.0543],[107.1362,-6.0496],[107.1307,-6.0622],[107.1405,-6.0572],[107.1436,-6.0713],[107.1596,-6.0677],[107.177,-6.0817],[107.1857,-6.0766],[107.1891,-6.0893],[107.2216,-6.1039],[107.2468,-6.1011],[107.2485,-6.1161],[107.2653,-6.1113],[107.2706,-6.1297],[107.2812,-6.1276],[107.2824,-6.148],[107.2927,-6.1414],[107.2786,-6.162],[107.2966,-6.2029],[107.291,-6.217],[107.2722,-6.2169],[107.2837,-6.2259],[107.2691,-6.232],[107.2761,-6.267],[107.255,-6.2948],[107.2365,-6.2967],[107.2385,-6.3061],[107.2331,-6.299],[107.2239,-6.3163],[107.2174,-6.3151],[107.2247,-6.3206],[107.2147,-6.33],[107.2266,-6.3492],[107.215,-6.3499],[107.2048,-6.3757],[107.2212,-6.3842],[107.2214,-6.4081],[107.1962,-6.423],[107.2117,-6.4493],[107.2054,-6.4519],[107.2169,-6.4614],[107.2089,-6.4686],[107.1954,-6.4611],[107.1717,-6.482],[107.1227,-6.4674],[107.126,-6.4592],[107.1075,-6.4623],[107.0667,-6.4357],[107.0554,-6.4357],[107.0584,-6.4231],[107.0512,-6.4172],[107.0621,-6.3995],[107.0515,-6.3943],[107.0415,-6.4069],[107.0232,-6.4097],[107.02,-6.4005],[107.0103,-6.4026],[107.0059,-6.3782],[106.9957,-6.3786],[106.993,-6.3705],[106.9941,-6.3554],[107.0041,-6.3552],[107.0068,-6.3626],[107.0172,-6.3536],[107.0164,-6.3304],[107.0371,-6.3215],[107.0401,-6.2877],[107.0166,-6.2762],[107.0164,-6.2656],[107.0415,-6.2462],[107.0425,-6.2328],[107.0304,-6.2267],[107.0325,-6.1984],[107.0059,-6.1959],[107.0107,-6.1724],[106.9716,-6.1722],[106.9687,-6.0928],[106.9909,-6.0874],[106.9979,-6.0768],[107.0166,-6.0785],[106.9894,-6.0496],[107.0056,-6.0499],[107.0055,-6.038],[107.0155,-6.0338],[107.0101,-6.0238],[106.9931,-6.0281],[106.9928,-6.0145],[106.9845,-6.0109],[107.0078,-5.9982],[107.0167,-5.9709],[107.0094,-5.9428],[106.9907,-5.9371],[107.0316,-5.9139]]]]}},{"type":"Feature","properties":{"OBJECTID":18,"KABKOT":"BANDUNG BARAT","ID_KAB":3217,"PROVINSI":"JAWA BARAT"},"geometry":{"type":"MultiPolygon","coordinates":[[[[107.4393,-6.9766],[107.4392,-6.9766],[107.4391,-6.9766],[107.4391,-6.9766],[107.439,-6.9765],[107.4389,-6.9764],[107.4389,-6.9764],[107.4389,-6.9763],[107.4391,-6.9762],[107.4391,-6.9762],[107.4391,-6.9761],[107.4392,-6.9761],[107.4393,-6.9762],[107.4392,-6.9763],[107.4392,-6.9763],[107.4393,-6.9764],[107.4393,-6.9764],[107.4393,-6.9765],[107.4393,-6.9765],[107.4393,-6.9766]]],[[[107.4391,-6.9628],[107.439,-6.9629],[107.4389,-6.9629],[107.4389,-6.9628],[107.4389,-6.9627],[107.4388,-6.9625],[107.4388,-6.9624],[107.4387,-6.9623],[107.4386,-6.9622],[107.4386,-6.9621],[107.4386,-6.9619],[107.4386,-6.9619],[107.4387,-6.9618],[107.4388,-6.9618],[107.4389,-6.9618],[107.4389,-6.9618],[107.439,-6.9618],[107.4391,-6.962],[107.4393,-6.9621],[107.4393,-6.9623],[107.4394,-6.9623],[107.4394,-6.9624],[107.4393,-6.9625],[107.4392,-6.9627],[107.4392,-6.9628],[107.4391,-6.9628]]],[[[107.4125,-6.9424],[107.4125,-6.9425],[107.4125,-6.9426],[107.4125,-6.9426],[107.4124,-6.9427],[107.4123,-6.9427],[107.4122,-6.9427],[107.4121,-6.9427],[107.412,-6.9428],[107.412,-6.9427],[107.4119,-6.9427],[107.4119,-6.9427],[107.4118,-6.9427],[107.4118,-6.9427],[107.4118,-6.9426],[107.4117,-6.9426],[107.4118,-6.9425],[107.4118,-6.9425],[107.4118,-6.9424],[107.4118,-6.9424],[107.4118,-6.9424],[107.412,-6.9424],[107.4121,-6.9424],[107.4122,-6.9424],[107.4124,-6.9424],[107.4124,-6.9424],[107.4125,-6.9424]]],[[[107.4278,-6.9291],[107.4277,-6.9292],[107.4276,-6.9297],[107.4276,-6.9302],[107.4276,-6.9307],[107.4276,-6.9309],[107.4276,-6.9311],[107.4275,-6.9312],[107.4273,-6.9312],[107.4271,-6.9311],[107.4268,-6.9308],[107.4265,-6.9302],[107.4262,-6.9302],[107.4262,-6.9306],[107.4262,-6.9309],[107.4262,-6.931],[107.4259,-6.9311],[107.4258,-6.9311],[107.4257,-6.9312],[107.4257,-6.9313],[107.4266,-6.9318],[107.4269,-6.9319],[107.4272,-6.932],[107.4274,-6.9321],[107.4276,-6.9322],[107.4276,-6.9323],[107.4275,-6.9325],[107.4273,-6.9325],[107.4271,-6.9324],[107.4269,-6.9324],[107.4268,-6.9324],[107.4266,-6.9325],[107.4265,-6.9325],[107.4264,-6.9324],[107.4263,-6.9322],[107.4261,-6.9321],[107.4259,-6.9319],[107.4255,-6.9318],[107.4251,-6.9318],[107.4246,-6.9319],[107.4243,-6.9318],[107.4239,-6.9317],[107.4235,-6.9317],[107.4231,-6.9318],[107.423,-6.9318],[107.4232,-6.9315],[107.4234,-6.9312],[107.4234,-6.9309],[107.4234,-6.9308],[107.4236,-6.9307],[107.4237,-6.9307],[107.424,-6.9304],[107.4241,-6.9302],[107.4241,-6.9301],[107.4241,-6.93],[107.4244,-6.9298],[107.4245,-6.9297],[107.4246,-6.9293],[107.4246,-6.9292],[107.4249,-6.9291],[107.4251,-6.929],[107.4252,-6.9289],[107.4253,-6.9288],[107.4254,-6.9287],[107.4257,-6.9289],[107.4259,-6.929],[107.4261,-6.929],[107.4263,-6.9289],[107.4264,-6.929],[107.4267,-6.9291],[107.4268,-6.9291],[107.4272,-6.929],[107.4278,-6.9286],[107.4279,-6.9286],[107.4279,-6.9288],[107.4278,-6.929],[107.4278,-6.9291]]],[[[107.3818,-6.9163],[107.3889,-6.9213],[107.372,-6.9248],[107.3818,-6.9163]]],[[[107.4095,-6.6885],[107.4251,-6.7],[107.4536,-6.701],[107.4874,-6.7353],[107.5176,-6.7439],[107.5302,-6.762],[107.5536,-6.7748],[107.5783,-6.7759],[107.571,-6.7366],[107.5831,-6.7271],[107.5972,-6.7299],[107.6006,-6.7611],[107.6185,-6.7601],[107.629,-6.7741],[107.6711,-6.7763],[107.688,-6.7983],[107.7075,-6.7929],[107.7238,-6.802],[107.7211,-6.8301],[107.7034,-6.8403],[107.6924,-6.8291],[107.6609,-6.8321],[107.6371,-6.855],[107.625,-6.8482],[107.6219,-6.856],[107.6161,-6.8471],[107.6045,-6.8594],[107.5976,-6.8369],[107.5707,-6.8828],[107.5618,-6.8729],[107.5635,-6.8561],[107.5509,-6.8484],[107.5503,-6.8335],[107.5396,-6.8338],[107.5359,-6.8585],[107.5231,-6.8653],[107.5102,-6.8983],[107.5249,-6.9199],[107.5226,-6.9355],[107.5113,-6.9368],[107.4844,-6.9235],[107.4807,-6.914],[107.4365,-6.8983],[107.4443,-6.8893],[107.4654,-6.8902],[107.4696,-6.884],[107.4724,-6.8988],[107.4764,-6.8921],[107.4997,-6.9082],[107.4759,-6.8873],[107.4884,-6.8942],[107.4894,-6.8877],[107.4813,-6.8889],[107.4942,-6.881],[107.4744,-6.885],[107.4868,-6.86],[107.4806,-6.8718],[107.4713,-6.8678],[107.4799,-6.8726],[107.4744,-6.8836],[107.4647,-6.8792],[107.4544,-6.8862],[107.4601,-6.8611],[107.4597,-6.8758],[107.449,-6.8754],[107.4496,-6.8881],[107.4367,-6.8821],[107.4377,-6.8918],[107.4281,-6.8852],[107.4365,-6.8968],[107.4257,-6.904],[107.4289,-6.8951],[107.4214,-6.8992],[107.4208,-6.9099],[107.4182,-6.9015],[107.4125,-6.9046],[107.4133,-6.8915],[107.3993,-6.9205],[107.3967,-6.9052],[107.3986,-6.9108],[107.3891,-6.9137],[107.3667,-6.9124],[107.3719,-6.9207],[107.3588,-6.928],[107.3477,-6.9213],[107.3562,-6.9297],[107.3635,-6.9219],[107.3712,-6.9254],[107.3599,-6.932],[107.3653,-6.9322],[107.3624,-6.949],[107.3628,-6.9373],[107.3741,-6.9272],[107.3698,-6.9513],[107.3729,-6.9355],[107.3758,-6.9492],[107.3801,-6.9447],[107.3736,-6.9327],[107.3923,-6.9231],[107.3945,-6.9122],[107.391,-6.9263],[107.3983,-6.925],[107.3914,-6.9384],[107.4029,-6.9201],[107.414,-6.9318],[107.4058,-6.9536],[107.4097,-6.9478],[107.414,-6.9547],[107.4143,-6.9408],[107.4214,-6.9525],[107.4178,-6.9421],[107.4244,-6.9428],[107.416,-6.9357],[107.4274,-6.9348],[107.4341,-6.9763],[107.4287,-6.9623],[107.411,-6.9572],[107.4127,-6.9656],[107.4144,-6.9569],[107.4192,-6.9628],[107.4157,-6.9684],[107.4216,-6.964],[107.4174,-6.9821],[107.4242,-6.9871],[107.4397,-6.977],[107.4364,-6.9689],[107.4452,-6.9624],[107.432,-6.9444],[107.4419,-6.9546],[107.4392,-6.9435],[107.446,-6.9547],[107.4486,-6.949],[107.4306,-6.9335],[107.4361,-6.9399],[107.434,-6.9328],[107.4423,-6.9376],[107.4389,-6.931],[107.4467,-6.9325],[107.4439,-6.9419],[107.4473,-6.9357],[107.4499,-6.9455],[107.4482,-6.9333],[107.4615,-6.9456],[107.4672,-6.9375],[107.4598,-6.9363],[107.4674,-6.9346],[107.4907,-6.9415],[107.4549,-6.933],[107.4614,-6.927],[107.4436,-6.9297],[107.4486,-6.923],[107.4574,-6.9264],[107.4509,-6.919],[107.4369,-6.9308],[107.4361,-6.925],[107.4304,-6.9313],[107.4324,-6.9212],[107.4177,-6.9313],[107.4071,-6.9225],[107.4214,-6.9206],[107.4061,-6.9165],[107.412,-6.9098],[107.4369,-6.9221],[107.437,-6.9093],[107.4305,-6.9162],[107.4267,-6.9063],[107.4669,-6.9115],[107.4973,-6.9327],[107.5321,-6.9406],[107.5049,-6.9818],[107.4871,-6.9813],[107.4865,-7],[107.4747,-7.0084],[107.4817,-7.0238],[107.4771,-7.0574],[107.448,-7.0484],[107.4255,-7.057],[107.4194,-7.0623],[107.4221,-7.0752],[107.4071,-7.0913],[107.4073,-7.1092],[107.3922,-7.1209],[107.3624,-7.1185],[107.3463,-7.1082],[107.3118,-7.1081],[107.3064,-7.0903],[107.2853,-7.0848],[107.2527,-7.0487],[107.2246,-7.0491],[107.2237,-7.0585],[107.1821,-7.0584],[107.1956,-7.0211],[107.1846,-6.9961],[107.1902,-6.9682],[107.2193,-6.9493],[107.2188,-6.9401],[107.2784,-6.9255],[107.3232,-6.8879],[107.3417,-6.8862],[107.3494,-6.8658],[107.3434,-6.8489],[107.338,-6.8576],[107.3238,-6.8509],[107.3187,-6.8018],[107.2921,-6.787],[107.2955,-6.7783],[107.2884,-6.7751],[107.2994,-6.7748],[107.2934,-6.7639],[107.3013,-6.7514],[107.2951,-6.7428],[107.3034,-6.7464],[107.3007,-6.7606],[107.3081,-6.75],[107.3144,-6.7533],[107.305,-6.7622],[107.3233,-6.756],[107.3254,-6.7648],[107.316,-6.7643],[107.3337,-6.7703],[107.3289,-6.761],[107.3349,-6.767],[107.3346,-6.7551],[107.3448,-6.7588],[107.3323,-6.7508],[107.3522,-6.7544],[107.345,-6.7558],[107.3269,-6.737],[107.3364,-6.7353],[107.3269,-6.7273],[107.3429,-6.719],[107.3425,-6.6999],[107.3669,-6.7024],[107.3728,-6.6899],[107.396,-6.6957],[107.4095,-6.6885]]]]}},{"type":"Feature","properties":{"OBJECTID":19,"KABKOT":"KOTA BOGOR","ID_KAB":3271,"PROVINSI":"JAWA BARAT"},"geometry":{"type":"MultiPolygon","coordinates":[[[[106.7822,-6.5117],[106.7932,-6.546],[106.8184,-6.5381],[106.8396,-6.5748],[106.8314,-6.6027],[106.8486,-6.6467],[106.8434,-6.6788],[106.8191,-6.6719],[106.8097,-6.6462],[106.8061,-6.6519],[106.7994,-6.6457],[106.787,-6.6592],[106.7716,-6.6537],[106.7903,-6.6278],[106.7631,-6.5831],[106.7498,-6.5723],[106.7411,-6.5754],[106.7354,-6.5653],[106.7408,-6.5428],[106.7609,-6.5498],[106.7668,-6.5167],[106.7822,-6.5117]]]]}},{"type":"Feature","properties":{"OBJECTID":20,"KABKOT":"KOTA SUKABUMI","ID_KAB":3272,"PROVINSI":"JAWA BARAT"},"geometry":{"type":"MultiPolygon","coordinates":[[[[106.9154,-6.8932],[106.9181,-6.9028],[106.9542,-6.9052],[106.9499,-6.9207],[106.9598,-6.9187],[106.9557,-6.9585],[106.9466,-6.9691],[106.9314,-6.9654],[106.9117,-6.9784],[106.8972,-6.9782],[106.8888,-6.9694],[106.8752,-6.9762],[106.8738,-6.963],[106.9116,-6.9521],[106.9006,-6.9335],[106.9009,-6.914],[106.9154,-6.8932]]]]}},{"type":"Feature","properties":{"OBJECTID":21,"KABKOT":"KOTA BANDUNG","ID_KAB":3273,"PROVINSI":"JAWA BARAT"},"geometry":{"type":"MultiPolygon","coordinates":[[[[107.598,-6.8387],[107.6045,-6.8594],[107.6161,-6.8471],[107.6219,-6.856],[107.625,-6.8482],[107.6326,-6.8893],[107.6423,-6.8938],[107.6465,-6.8885],[107.6565,-6.8943],[107.6702,-6.884],[107.6681,-6.891],[107.6808,-6.8894],[107.7,-6.9082],[107.7076,-6.8897],[107.7146,-6.8902],[107.7152,-6.9036],[107.7261,-6.895],[107.7382,-6.8996],[107.7131,-6.9475],[107.716,-6.9617],[107.6943,-6.9697],[107.587,-6.9627],[107.5611,-6.9493],[107.5459,-6.9281],[107.5651,-6.9301],[107.569,-6.9103],[107.5561,-6.889],[107.5763,-6.8907],[107.5758,-6.8676],[107.598,-6.8387]]]]}},{"type":"Feature","properties":{"OBJECTID":22,"KABKOT":"KOTA CIREBON","ID_KAB":3274,"PROVINSI":"JAWA BARAT"},"geometry":{"type":"MultiPolygon","coordinates":[[[[108.5661,-6.7007],[108.5955,-6.7451],[108.5604,-6.7569],[108.5445,-6.7961],[108.5305,-6.7832],[108.5349,-6.7579],[108.5187,-6.7369],[108.5343,-6.7256],[108.5472,-6.7266],[108.5429,-6.6964],[108.5481,-6.701],[108.5623,-6.6912],[108.5661,-6.7007]]]]}},{"type":"Feature","properties":{"OBJECTID":23,"KABKOT":"KOTA BEKASI","ID_KAB":3275,"PROVINSI":"JAWA BARAT"},"geometry":{"type":"MultiPolygon","coordinates":[[[[106.9844,-6.1724],[107.0107,-6.1724],[107.0059,-6.1959],[107.0325,-6.1984],[107.0304,-6.2267],[107.0425,-6.2328],[107.0417,-6.2453],[107.0178,-6.2628],[107.0166,-6.2762],[107.0401,-6.2877],[107.0371,-6.3215],[107.0164,-6.3304],[107.0172,-6.3536],[107.0068,-6.3626],[107.0016,-6.3539],[106.9941,-6.3554],[106.9947,-6.3672],[106.9797,-6.3643],[106.9819,-6.3579],[106.9662,-6.3422],[106.9757,-6.3409],[106.9809,-6.3149],[106.9667,-6.303],[106.9618,-6.3358],[106.9503,-6.3442],[106.9455,-6.3685],[106.921,-6.3969],[106.8993,-6.3978],[106.9162,-6.3629],[106.9228,-6.3142],[106.9209,-6.3005],[106.9102,-6.2943],[106.9044,-6.2621],[106.9199,-6.2503],[106.9439,-6.2523],[106.9418,-6.2382],[106.9662,-6.2069],[106.9716,-6.1722],[106.9844,-6.1724]]]]}},{"type":"Feature","properties":{"OBJECTID":24,"KABKOT":"KOTA DEPOK","ID_KAB":3276,"PROVINSI":"JAWA BARAT"},"geometry":{"type":"MultiPolygon","coordinates":[[[[106.8072,-6.3144],[106.7924,-6.3484],[106.7947,-6.3649],[106.8353,-6.355],[106.8356,-6.3437],[106.8494,-6.3361],[106.8556,-6.3524],[106.8712,-6.3529],[106.8827,-6.3699],[106.9012,-6.3695],[106.9066,-6.3608],[106.9144,-6.3655],[106.8977,-6.3964],[106.9188,-6.3956],[106.9171,-6.4096],[106.892,-6.4272],[106.8801,-6.458],[106.8557,-6.4563],[106.853,-6.436],[106.8441,-6.4372],[106.8443,-6.4473],[106.8254,-6.4613],[106.8231,-6.4443],[106.805,-6.4428],[106.8016,-6.452],[106.7932,-6.4518],[106.7882,-6.4382],[106.7384,-6.4389],[106.7328,-6.4293],[106.7372,-6.4191],[106.7167,-6.3653],[106.7711,-6.3572],[106.7787,-6.3172],[106.8072,-6.3144]]]]}},{"type":"Feature","properties":{"OBJECTID":25,"KABKOT":"KOTA CIMAHI","ID_KAB":3277,"PROVINSI":"JAWA BARAT"},"geometry":{"type":"MultiPolygon","coordinates":[[[[107.5456,-6.8317],[107.5763,-6.8907],[107.5561,-6.889],[107.569,-6.9103],[107.5641,-6.9329],[107.5454,-6.927],[107.5438,-6.919],[107.5257,-6.9212],[107.5102,-6.8983],[107.5456,-6.8317]]]]}},{"type":"Feature","properties":{"OBJECTID":26,"KABKOT":"KOTA TASIKMALAYA","ID_KAB":3278,"PROVINSI":"JAWA BARAT"},"geometry":{"type":"MultiPolygon","coordinates":[[[[108.1938,-7.2696],[108.2018,-7.2862],[108.2495,-7.3131],[108.2526,-7.3213],[108.2669,-7.3182],[108.278,-7.3341],[108.2985,-7.3318],[108.313,-7.3396],[108.2922,-7.3407],[108.2821,-7.3515],[108.2936,-7.3587],[108.2637,-7.3742],[108.2825,-7.3852],[108.2711,-7.3936],[108.278,-7.3995],[108.2763,-7.417],[108.2655,-7.434],[108.2291,-7.4255],[108.2308,-7.4307],[108.2128,-7.435],[108.1988,-7.4507],[108.1873,-7.4468],[108.1938,-7.441],[108.1809,-7.4089],[108.1855,-7.3952],[108.1712,-7.386],[108.1634,-7.3632],[108.1682,-7.3467],[108.1526,-7.335],[108.1614,-7.3181],[108.1497,-7.2877],[108.1761,-7.2886],[108.1789,-7.2721],[108.1938,-7.2696]]]]}},{"type":"Feature","properties":{"OBJECTID":27,"KABKOT":"KOTA BANJAR","ID_KAB":3279,"PROVINSI":"JAWA BARAT"},"geometry":{"type":"MultiPolygon","coordinates":[[[[108.552,-7.3237],[108.5594,-7.3265],[108.5585,-7.3351],[108.5754,-7.3343],[108.5834,-7.3498],[108.6454,-7.3456],[108.6475,-7.337],[108.6614,-7.3418],[108.6505,-7.3873],[108.6306,-7.3818],[108.6154,-7.406],[108.6,-7.3937],[108.5906,-7.395],[108.5947,-7.4072],[108.5652,-7.4376],[108.5657,-7.4299],[108.5442,-7.4121],[108.5342,-7.4161],[108.4694,-7.3817],[108.4757,-7.3647],[108.47,-7.3616],[108.4966,-7.349],[108.5014,-7.3584],[108.5227,-7.3585],[108.535,-7.3436],[108.5504,-7.3418],[108.552,-7.3237]]]]}}]}